{
  "norad_id": 65884,
  "name": "STARLINK-35384",
  "history": [
    {
      "epoch": "2026-03-28T19:55:46.940160Z",
      "apogee_km": 475.7331211987903,
      "perigee_km": 474.728828655745,
      "latitude_deg": -3.780916350780206e-05,
      "longitude_deg": 157.34006800390068,
      "height_km": 476.1633627909373,
      "semi_major_axis_km": 6853.367974927268,
      "eccentricity": 7.327e-05,
      "inclination_deg": 53.1579,
      "raan_deg": 282.5309,
      "arg_perigee_deg": 93.8615,
      "mean_anomaly_deg": 266.2469,
      "mean_motion_rev_day": 15.30194673
    },
    {
      "epoch": "2026-03-29T22:34:41.198304Z",
      "apogee_km": 475.76354023676504,
      "perigee_km": 474.6245166198414,
      "latitude_deg": 8.753781412906568e-06,
      "longitude_deg": 111.36231640298813,
      "height_km": 476.1083395348813,
      "semi_major_axis_km": 6853.331028428303,
      "eccentricity": 8.31e-05,
      "inclination_deg": 53.1581,
      "raan_deg": 277.3736,
      "arg_perigee_deg": 91.5948,
      "mean_anomaly_deg": 268.5148,
      "mean_motion_rev_day": 15.30207047
    }
  ]
}